ONEWEB-0208             
1 48243U 21031AK  25252.28532826 -.00000138  00000+0 -40740-3 0  9991
2 48243  87.9091 345.6265 0001737 105.6449 254.4873 13.14503873211401
ONEWEB-0200             
1 48244U 21031AL  25252.24886583  .00000316  00000+0  81694-3 0  9999
2 48244  87.9088 345.6246 0001785 102.9639 257.1690 13.14503745211327
ONEWEB-0217             
1 48245U 21031AM  25252.26470679  .00000185  00000+0  46455-3 0  9997
2 48245  87.9097 345.6075 0001647 109.3387 250.7921 13.14502306211278
ONEWEB-0211             
1 48767U 21045A   25252.21110853  .00000009  00000+0 -11294-4 0  9991
2 48767  87.9050 315.1954 0001567  97.2287 262.9021 13.16085027207481
ONEWEB-0223             
1 48768U 21045B   25252.23749563  .00000218  00000+0  54615-3 0  9994
2 48768  87.9040 315.2431 0001385  94.1224 266.0064 13.15548884207461
ONEWEB-0230             
1 48769U 21045C   25252.20897711 -.00000008  00000+0 -54625-4 0  9992
2 48769  87.9035 315.2826 0001969  94.0203 266.1153 13.15549166207721
ONEWEB-0237             
1 48770U 21045D   25252.19788084  .00000039  00000+0  68434-4 0  9999
2 48770  87.9051 315.2787 0001587  92.4000 267.7312 13.15548483207444
ONEWEB-0235             
1 48771U 21045E   25252.24857569 -.00000646  00000+0 -17504-2 0  9997
2 48771  87.9037 315.2417 0001446  89.4487 270.6809 13.15550022207444
ONEWEB-0242             
1 48772U 21045F   25252.24224957  .00000168  00000+0  41216-3 0  9992
2 48772  87.9049 315.2291 0001784  91.5965 268.5370 13.15549131207480
ONEWEB-0241             
1 48773U 21045G   25252.22957266  .00000133  00000+0  32022-3 0  9994
2 48773  87.9034 315.2800 0001456 105.2173 254.9118 13.15548891207392
ONEWEB-0243             
1 48774U 21045H   25252.26126862  .00000067  00000+0  14485-3 0  9998
2 48774  87.9050 315.2753 0001519  86.4418 273.6886 13.15548484207422
ONEWEB-0222             
1 48775U 21045J   25252.24460604  .00000244  00000+0  61378-3 0  9992
2 48775  87.9044 315.2311 0001733  98.3856 261.7470 13.15552571207465
ONEWEB-0244             
1 48776U 21045K   25252.19471530  .00000043  00000+0  79757-4 0  9995
2 48776  87.9053 315.2228 0001846  91.3148 268.8194 13.15548769208023
ONEWEB-0247             
1 48777U 21045L   25252.19153911  .00000067  00000+0  14278-3 0  9998
2 48777  87.9041 315.2930 0001143  71.5267 288.5988 13.15551179207469
ONEWEB-0245             
1 48778U 21045M   25252.18679361  .00000125  00000+0  29875-3 0  9994
2 48778  87.9041 315.2574 0001701 102.1389 257.9933 13.15549219207439
ONEWEB-0229             
1 48779U 21045N   25252.10597138  .00000145  00000+0  35009-3 0  9996
2 48779  87.9038 315.2735 0001785  92.3047 267.8288 13.15550152207451
ONEWEB-0228             
1 48780U 21045P   25251.68303867 -.00000025  00000+0 -10131-3 0  9992
2 48780  87.9047 315.3330 0001795  96.0789 264.0546 13.15549640207311
ONEWEB-0232             
1 48781U 21045Q   25252.18996266  .00000104  00000+0  24297-3 0  9994
2 48781  87.9042 315.2246 0001848  96.3505 263.7836 13.15548986207703
ONEWEB-0231             
1 48782U 21045R   25252.24382453  .00000237  00000+0  59542-3 0  9997
2 48782  87.9038 315.2658 0001610  91.7959 268.3356 13.15549226207408
ONEWEB-0234             
1 48783U 21045S   25252.20566885 -.00000069  00000+0 -21749-3 0  9990
2 48783  87.9046 315.2425 0002312 119.7848 240.3513 13.15551418207533
ONEWEB-0238             
1 48784U 21045T   25252.20594628 -.00000025  00000+0 -10075-3 0  9999
2 48784  87.9041 315.2383 0002070 107.2733 252.8624 13.15549680207436
ONEWEB-0240             
1 48785U 21045U   25252.22719737  .00000036  00000+0  61628-4 0  9993
2 48785  87.9048 315.2186 0001542 102.9630 257.1673 13.15547747207463
ONEWEB-0246             
1 48786U 21045V   25252.22164978  .00000117  00000+0  27553-3 0  9993
2 48786  87.9046 315.2321 0001810  92.8546 267.2791 13.15549274207330
ONEWEB-0210             
1 48787U 21045W   25252.19629882  .00000055  00000+0  11269-3 0  9998
2 48787  87.9049 315.2363 0001522  76.3612 283.7687 13.15548954207376
ONEWEB-0214             
1 48788U 21045X   25252.20500324 -.00000042  00000+0 -14556-3 0  9990
2 48788  87.9048 315.2230 0001820  82.8484 277.2853 13.15548503207349
ONEWEB-0221             
1 48789U 21045Y   25252.13608223 -.00000012  00000+0 -66644-4 0  9993
2 48789  87.9037 315.2625 0001659  95.2381 264.8939 13.15549977207422
ONEWEB-0213             
1 48790U 21045Z   25252.20105227 -.00000109  00000+0 -32327-3 0  9996
2 48790  87.9040 315.2578 0001646  91.7614 268.3705 13.15548907207490
ONEWEB-0212             
1 48791U 21045AA  25251.87385021  .00000150  00000+0  36351-3 0  9996
2 48791  87.9045 315.3056 0001859  98.5524 261.5817 13.15548358207443
ONEWEB-0227             
1 48792U 21045AB  25252.17728274  .00000148  00000+0  36030-3 0  9993
2 48792  87.9040 315.2639 0001716  96.8425 263.2900 13.15548903207435
ONEWEB-0226             
1 48793U 21045AC  25252.24699679  .00000199  00000+0  49428-3 0  9999
2 48793  87.9044 315.2570 0001561  87.4957 272.6352 13.15540481207414
ONEWEB-0224             
1 48794U 21045AD  25252.21055826 -.00000046  00000+0 -15561-3 0  9991
2 48794  87.9039 315.2997 0001542 128.4106 231.7163 13.15549237207338
ONEWEB-0233             
1 48795U 21045AE  25252.13911387 -.00000041  00000+0 -14382-3 0  9991
2 48795  87.9038 315.3247 0001614  87.2649 272.8666 13.15547976207344
ONEWEB-0190             
1 48796U 21045AF  25252.20262728 -.00000056  00000+0 -18207-3 0  9994
2 48796  87.9040 315.2750 0001135  83.8090 276.3170 13.15550456207421
ONEWEB-0236             
1 48797U 21045AG  25252.22007074  .00000000  00000+0 -34225-4 0  9995
2 48797  87.9040 315.2825 0001972 100.2114 259.9239 13.15549050207314
ONEWEB-0248             
1 48798U 21045AH  25252.23273951  .00000142  00000+0  34247-3 0  9995
2 48798  87.9048 315.2345 0001287 109.7668 250.3601 13.15549248207471
ONEWEB-0225             
1 48799U 21045AJ  25252.10281418  .00000180  00000+0  44458-3 0  9996
2 48799  87.9045 315.2915 0001246  87.8229 272.3044 13.15549368207463
ONEWEB-0215             
1 48800U 21045AK  25252.22481754  .00000017  00000+0  11468-4 0  9992
2 48800  87.9050 315.2188 0001158  98.0837 262.0424 13.15548452207354
ONEWEB-0216             
1 48801U 21045AL  25252.15827088  .00000227  00000+0  56836-3 0  9999
2 48801  87.9040 315.2734 0001841  91.1491 268.9850 13.15546386207352
ONEWEB-0239             
1 48802U 21045AM  25252.23908142  .00000204  00000+0  50703-3 0  9992
2 48802  87.9041 315.2715 0001125 113.9817 246.1431 13.15548849207408
ONEWEB-0249             
1 48967U 21060A   25252.09134682  .00000023  00000+0  25389-4 0  9997
2 48967  87.8991 284.8064 0001857  96.2110 263.9233 13.16594721202629
ONEWEB-0250             
1 48968U 21060B   25252.11257486  .00000024  00000+0  24365-4 0  9993
2 48968  87.8985 283.4786 0001825 124.5416 235.5893 13.25812814202979
ONEWEB-0252             
1 48970U 21060D   25252.12300607 -.00000040  00000+0 -13714-3 0  9996
2 48970  87.8988 284.7933 0002085  85.4041 274.7328 13.16595341202679
ONEWEB-0253             
1 48971U 21060E   25252.03592355  .00000081  00000+0  17751-3 0  9998
2 48971  87.8989 284.8140 0001663  90.4767 269.6555 13.16595121202596
ONEWEB-0254             
1 48972U 21060F   25252.12142540  .00000009  00000+0 -10388-4 0  9997
2 48972  87.8995 284.7839 0001492  97.7659 262.3642 13.16593996202605
ONEWEB-0255             
1 48973U 21060G   25252.15941866  .00000049  00000+0  94227-4 0  9996
2 48973  87.8982 284.8033 0001613  94.0948 266.0367 13.16595231202682
ONEWEB-0256             
1 48974U 21060H   25252.03354793  .00000073  00000+0  15675-3 0  9997
2 48974  87.8982 284.8387 0001996  90.3604 269.7756 13.16595467202635
ONEWEB-0257             
1 48975U 21060J   25251.99001615  .00000114  00000+0  26512-3 0  9992
2 48975  87.8991 284.8166 0001717  90.0046 270.1282 13.16594745202581
ONEWEB-0258             
1 48976U 21060K   25252.14358694  .00000037  00000+0  64076-4 0  9995
2 48976  87.8983 284.8095 0001885  96.4470 263.6875 13.16595061202612
ONEWEB-0259             
1 48977U 21060L   25252.13725893 -.00000027  00000+0 -10545-3 0  9996
2 48977  87.8988 284.7967 0001735  95.4655 264.6674 13.16594566202643
ONEWEB-0260             
1 48978U 21060M   25252.12854575  .00000010  00000+0 -85178-5 0  9993
2 48978  87.8979 284.8215 0002116  80.1629 279.9741 13.16594981202620
ONEWEB-0261             
1 48979U 21060N   25252.09847083  .00000053  00000+0  10503-3 0  9990
2 48979  87.8982 284.8292 0001541  82.7978 277.3328 13.16594146202677
ONEWEB-0262             
1 48980U 21060P   25252.15467093  .00000078  00000+0  17000-3 0  9994
2 48980  87.8989 284.7820 0001647 101.2977 258.8339 13.16595717202643
ONEWEB-0263             
1 48981U 21060Q   25252.11034642  .00000015  00000+0  58804-5 0  9991
2 48981  87.8983 284.8130 0001433  90.3036 269.8260 13.16594412202602
ONEWEB-0264             
1 48982U 21060R   25252.07154532  .00000085  00000+0  18830-3 0  9998
2 48982  87.8980 284.8258 0001844  85.3643 274.7699 13.16592475202603
ONEWEB-0266             
1 48984U 21060T   25252.09293063  .00000073  00000+0  15685-3 0  9997
2 48984  87.8990 284.7981 0001911  98.7545 261.3803 13.16594927202593
ONEWEB-0267             
1 48985U 21060U   25252.02801572  .00000103  00000+0  23537-3 0  9990
2 48985  87.8991 284.8138 0001663  87.8143 272.3178 13.16594685202595
ONEWEB-0268             
1 48986U 21060V   25252.14833635  .00000050  00000+0  96981-4 0  9994
2 48986  87.8989 284.7958 0001904  90.0353 270.0996 13.16594626202878
ONEWEB-0269             
1 48987U 21060W   25252.12934615 -.00000081  00000+0 -24684-3 0  9999
2 48987  87.8983 284.8302 0002066  93.3638 266.7729 13.16593751202648
ONEWEB-0270             
1 48988U 21060X   25252.14675969  .00000113  00000+0  26232-3 0  9991
2 48988  87.8988 284.7979 0001426  94.3933 265.7361 13.16594905202688
